{
    "links": {
        "self": "http://www.neowsapp.com/rest/v1/neo/3158126?api_key=iIulBulltgU6a56xZRHN4H3l9WmuAYTsLGpBGhQ2"
    },
    "id": "3158126",
    "neo_reference_id": "3158126",
    "name": "(2003 QB31)",
    "designation": "2003 QB31",
    "nasa_jpl_url": "http://ssd.jpl.nasa.gov/sbdb.cgi?sstr=3158126",
    "absolute_magnitude_h": 21.6,
    "estimated_diameter": {
        "kilometers": {
            "estimated_diameter_min": 0.1272198785,
            "estimated_diameter_max": 0.2844722965
        },
        "meters": {
            "estimated_diameter_min": 127.2198785394,
            "estimated_diameter_max": 284.4722965033
        },
        "miles": {
            "estimated_diameter_min": 0.0790507431,
            "estimated_diameter_max": 0.1767628354
        },
        "feet": {
            "estimated_diameter_min": 417.3880663071,
            "estimated_diameter_max": 933.3080892598
        }
    },
    "is_potentially_hazardous_asteroid": false,
    "close_approach_data": [
        {
            "close_approach_date": "2003-08-10",
            "close_approach_date_full": "2003-Aug-10 00:39",
            "epoch_date_close_approach": 1060475940000,
            "relative_velocity": {
                "kilometers_per_second": "3.3276231215",
                "kilometers_per_hour": "11979.443237268",
                "miles_per_hour": "7443.5601604013"
            },
            "miss_distance": {
                "astronomical": "0.241424268",
                "lunar": "93.914040252",
                "kilometers": "36116556.25910916",
                "miles": "22441787.419900008"
            },
            "orbiting_body": "Earth"
        },
        {
            "close_approach_date": "2013-03-15",
            "close_approach_date_full": "2013-Mar-15 06:53",
            "epoch_date_close_approach": 1363330380000,
            "relative_velocity": {
                "kilometers_per_second": "7.5983364261",
                "kilometers_per_hour": "27354.011133898",
                "miles_per_hour": "16996.7187515046"
            },
            "miss_distance": {
                "astronomical": "0.0468072753",
                "lunar": "18.2080300917",
                "kilometers": "7002268.685383611",
                "miles": "4351008.0021753918"
            },
            "orbiting_body": "Mars"
        }
    ],
    "orbital_data": {
        "orbit_id": "15",
        "orbit_determination_date": "2017-04-06 09:13:55",
        "first_observation_date": "2003-08-25",
        "last_observation_date": "2003-10-29",
        "data_arc_in_days": 65,
        "observations_used": 41,
        "orbit_uncertainty": "5",
        "minimum_orbit_intersection": ".231549",
        "jupiter_tisserand_invariant": "3.578",
        "epoch_osculation": "2459000.5",
        "eccentricity": ".4299726115251551",
        "semi_major_axis": "2.14545293190822",
        "inclination": "6.011986738544858",
        "ascending_node_longitude": "191.771821823596",
        "orbital_period": "1147.828261595129",
        "perihelion_distance": "1.222966931871341",
        "perihelion_argument": "120.0052691267267",
        "aphelion_distance": "3.067938931945098",
        "perihelion_time": "2458591.681285276054",
        "mean_anomaly": "128.2201721502248",
        "mean_motion": ".313635769430969",
        "equinox": "J2000",
        "orbit_class": {
            "orbit_class_type": "AMO",
            "orbit_class_description": "Near-Earth asteroid orbits similar to that of 1221 Amor",
            "orbit_class_range": "1.017 AU < q (perihelion) < 1.3 AU"
        }
    },
    "is_sentry_object": false
}